{
    "CCSDS_OMM_VERS": "3.0",
    "COMMENT": "GENERATED VIA SPACE-TRACK.ORG API",
    "CREATION_DATE": "2025-11-23T21:08:43",
    "ORIGINATOR": "18 SPCS",
    "OBJECT_NAME": "COSMOS 2529 (GLONASS)",
    "OBJECT_ID": "2018-086A",
    "CENTER_NAME": "EARTH",
    "REF_FRAME": "TEME",
    "TIME_SYSTEM": "UTC",
    "MEAN_ELEMENT_THEORY": "SGP4",
    "EPOCH": "2025-11-23T04:14:12.285312",
    "MEAN_MOTION": "2.13102001",
    "ECCENTRICITY": "0.00075955",
    "INCLINATION": "64.2915",
    "RA_OF_ASC_NODE": "199.5495",
    "ARG_OF_PERICENTER": "255.1465",
    "MEAN_ANOMALY": "104.8667",
    "EPHEMERIS_TYPE": "0",
    "CLASSIFICATION_TYPE": "U",
    "NORAD_CAT_ID": "43687",
    "ELEMENT_SET_NO": "999",
    "REV_AT_EPOCH": "5489",
    "BSTAR": "0.00000000000000",
    "MEAN_MOTION_DOT": "0.00000062",
    "MEAN_MOTION_DDOT": "0.0000000000000",
    "SEMIMAJOR_AXIS": "25508.024",
    "PERIOD": "675.733",
    "APOAPSIS": "19149.264",
    "PERIAPSIS": "19110.515",
    "OBJECT_TYPE": "PAYLOAD",
    "RCS_SIZE": "LARGE",
    "COUNTRY_CODE": "CIS",
    "LAUNCH_DATE": "2018-11-03",
    "SITE": "PKMTR",
    "DECAY_DATE": null,
    "FILE": "4896238",
    "GP_ID": "303334222",
    "TLE_LINE0": "0 COSMOS 2529 (GLONASS)",
    "TLE_LINE1": "1 43687U 18086A   25327.17653108  .00000062  00000-0  00000-0 0  9999",
    "TLE_LINE2": "2 43687  64.2915 199.5495 0007596 255.1465 104.8667  2.13102001 54892"
}